{
  "links" : {
    "next" : "https://api.nasa.gov/neo/rest/v1/feed?start_date=2014-06-09&end_date=2014-06-09&detailed=true&api_key=t0TVs3DtDT2H8Oy2Zy8m2eVrNsAVKAexjcZXUckd",
    "prev" : "https://api.nasa.gov/neo/rest/v1/feed?start_date=2014-06-07&end_date=2014-06-07&detailed=true&api_key=t0TVs3DtDT2H8Oy2Zy8m2eVrNsAVKAexjcZXUckd",
    "self" : "https://api.nasa.gov/neo/rest/v1/feed?start_date=2014-06-08&end_date=2014-06-08&detailed=true&api_key=t0TVs3DtDT2H8Oy2Zy8m2eVrNsAVKAexjcZXUckd"
  },
  "element_count" : 10,
  "near_earth_objects" : {
    "2014-06-08" : [ {
      "links" : {
        "self" : "https://api.nasa.gov/neo/rest/v1/neo/3673384?api_key=t0TVs3DtDT2H8Oy2Zy8m2eVrNsAVKAexjcZXUckd"
      },
      "neo_reference_id" : "3673384",
      "name" : "(2014 LM9)",
      "nasa_jpl_url" : "http://ssd.jpl.nasa.gov/sbdb.cgi?sstr=3673384",
      "absolute_magnitude_h" : 25.0,
      "estimated_diameter" : {
        "kilometers" : {
          "estimated_diameter_min" : 0.02658,
          "estimated_diameter_max" : 0.0594346868
        },
        "meters" : {
          "estimated_diameter_min" : 26.58,
          "estimated_diameter_max" : 59.4346868419
        },
        "miles" : {
          "estimated_diameter_min" : 0.0165160412,
          "estimated_diameter_max" : 0.0369309908
        },
        "feet" : {
          "estimated_diameter_min" : 87.2047272,
          "estimated_diameter_max" : 194.9956979785
        }
      },
      "is_potentially_hazardous_asteroid" : false,
      "close_approach_data" : [ {
        "close_approach_date" : "2014-06-08",
        "epoch_date_close_approach" : 1402210800000,
        "relative_velocity" : {
          "kilometers_per_second" : "7.3866564615",
          "kilometers_per_hour" : "26591.9632613986",
          "miles_per_hour" : "16523.2118387285"
        },
        "miss_distance" : {
          "astronomical" : "0.0592351928",
          "lunar" : "23.0424900055",
          "kilometers" : "8861459",
          "miles" : "5506255"
        },
        "orbiting_body" : "Earth"
      } ],
      "orbital_data" : {
        "orbit_id" : "8",
        "orbit_determination_date" : "2017-04-06 08:40:11",
        "orbit_uncertainty" : "8",
        "minimum_orbit_intersection" : ".0575042",
        "jupiter_tisserand_invariant" : "3.155",
        "epoch_osculation" : "2456816.5",
        "eccentricity" : ".5849722713923751",
        "semi_major_axis" : "2.582138545521983",
        "inclination" : "4.050519110427481",
        "ascending_node_longitude" : "72.50448301162169",
        "orbital_period" : "1515.541168129944",
        "perihelion_distance" : "1.071659095498185",
        "perihelion_argument" : "190.3389340383643",
        "aphelion_distance" : "4.092617995545782",
        "perihelion_time" : "2456821.379634744659",
        "mean_anomaly" : "358.8408968723398",
        "mean_motion" : ".2375389118886232",
        "equinox" : "J2000"
      }
    }, {
      "links" : {
        "self" : "https://api.nasa.gov/neo/rest/v1/neo/2001943?api_key=t0TVs3DtDT2H8Oy2Zy8m2eVrNsAVKAexjcZXUckd"
      },
      "neo_reference_id" : "2001943",
      "name" : "1943 Anteros (1973 EC)",
      "nasa_jpl_url" : "http://ssd.jpl.nasa.gov/sbdb.cgi?sstr=2001943",
      "absolute_magnitude_h" : 15.75,
      "estimated_diameter" : {
        "kilometers" : {
          "estimated_diameter_min" : 1.8817198949,
          "estimated_diameter_max" : 4.2076535996
        },
        "meters" : {
          "estimated_diameter_min" : 1881.719894893,
          "estimated_diameter_max" : 4207.6535995946
        },
        "miles" : {
          "estimated_diameter_min" : 1.1692461728,
          "estimated_diameter_max" : 2.6145139248
        },
        "feet" : {
          "estimated_diameter_min" : 6173.6218999609,
          "estimated_diameter_max" : 13804.6382356939
        }
      },
      "is_potentially_hazardous_asteroid" : false,
      "close_approach_data" : [ {
        "close_approach_date" : "2014-06-08",
        "epoch_date_close_approach" : 1402210800000,
        "relative_velocity" : {
          "kilometers_per_second" : "11.0078688479",
          "kilometers_per_hour" : "39628.3278525635",
          "miles_per_hour" : "24623.5018259442"
        },
        "miss_distance" : {
          "astronomical" : "0.2739522208",
          "lunar" : "106.5674133301",
          "kilometers" : "40982668",
          "miles" : "25465450"
        },
        "orbiting_body" : "Earth"
      } ],
      "orbital_data" : {
        "orbit_id" : "422",
        "orbit_determination_date" : "2017-09-08 06:17:42",
        "orbit_uncertainty" : "0",
        "minimum_orbit_intersection" : ".0630379",
        "jupiter_tisserand_invariant" : "4.639",
        "epoch_osculation" : "2458000.5",
        "eccentricity" : ".256082661510471",
        "semi_major_axis" : "1.4304782340341",
        "inclination" : "8.70611668968893",
        "ascending_node_longitude" : "246.3333377728767",
        "orbital_period" : "624.9140771192934",
        "perihelion_distance" : "1.064157560629849",
        "perihelion_argument" : "338.3661729563511",
        "aphelion_distance" : "1.79679890743835",
        "perihelion_time" : "2458048.813451850295",
        "mean_anomaly" : "332.1676254337509",
        "mean_motion" : ".5760791974146512",
        "equinox" : "J2000"
      }
    }, {
      "links" : {
        "self" : "https://api.nasa.gov/neo/rest/v1/neo/2162361?api_key=t0TVs3DtDT2H8Oy2Zy8m2eVrNsAVKAexjcZXUckd"
      },
      "neo_reference_id" : "2162361",
      "name" : "162361 (2000 AF6)",
      "nasa_jpl_url" : "http://ssd.jpl.nasa.gov/sbdb.cgi?sstr=2162361",
      "absolute_magnitude_h" : 20.2,
      "estimated_diameter" : {
        "kilometers" : {
          "estimated_diameter_min" : 0.2424124811,
          "estimated_diameter_max" : 0.5420507863
        },
        "meters" : {
          "estimated_diameter_min" : 242.4124811008,
          "estimated_diameter_max" : 542.0507863358
        },
        "miles" : {
          "estimated_diameter_min" : 0.1506280858,
          "estimated_diameter_max" : 0.3368146392
        },
        "feet" : {
          "estimated_diameter_min" : 795.3165644948,
          "estimated_diameter_max" : 1778.3819018419
        }
      },
      "is_potentially_hazardous_asteroid" : true,
      "close_approach_data" : [ {
        "close_approach_date" : "2014-06-08",
        "epoch_date_close_approach" : 1402210800000,
        "relative_velocity" : {
          "kilometers_per_second" : "14.0232085356",
          "kilometers_per_hour" : "50483.5507280711",
          "miles_per_hour" : "31368.5151732284"
        },
        "miss_distance" : {
          "astronomical" : "0.4261128796",
          "lunar" : "165.7579193115",
          "kilometers" : "63745580",
          "miles" : "39609668"
        },
        "orbiting_body" : "Earth"
      } ],
      "orbital_data" : {
        "orbit_id" : "81",
        "orbit_determination_date" : "2017-04-06 09:26:32",
        "orbit_uncertainty" : "0",
        "minimum_orbit_intersection" : ".0236921",
        "jupiter_tisserand_invariant" : "6.676",
        "epoch_osculation" : "2458000.5",
        "eccentricity" : ".4113817336576461",
        "semi_major_axis" : ".877764525963731",
        "inclination" : "2.696580874309327",
        "ascending_node_longitude" : "110.7848127652395",
        "orbital_period" : "300.3761626076436",
        "perihelion_distance" : ".5166682335295893",
        "perihelion_argument" : "200.1425063318039",
        "aphelion_distance" : "1.238860818397873",
        "perihelion_time" : "2458042.276309813412",
        "mean_anomaly" : "309.9312082481288",
        "mean_motion" : "1.19849723385087",
        "equinox" : "J2000"
      }
    } ]
  }
}